IRIDIUM 36 [-]          
1 24967U 97056C   24111.73735984  .00001332  00000+0  44541-3 0  9999
2 24967  86.4001 350.4167 0002025  83.5018 276.6410 14.36736844391543
IRIDIUM 39 [-]          
1 25042U 97069D   24111.85655570  .00002175  00000+0  58169-3 0  9990
2 25042  86.3965  32.0753 0016009 277.4509  82.4875 14.47855317387829
IRIDIUM 38 [-]          
1 25043U 97069E   24111.90223096  .00001718  00000+0  57135-3 0  9995
2 25043  86.3980  50.7206 0003824  67.0985 293.0616 14.37184568385282
IRIDIUM 42 [-]          
1 25077U 97077A   24111.81763939  .00001647  00000+0  56633-3 0  9999
2 25077  86.3973  56.4090 0002839  80.2464 279.9053 14.35491231380581
IRIDIUM 44 [-]          
1 25078U 97077B   24111.86130244  .00001614  00000+0  51368-3 0  9996
2 25078  86.3994  39.4507 0002397  38.8944 321.2427 14.39321057382939
IRIDIUM 45 [-]          
1 25104U 97082A   24111.81226258  .00025847  00000+0  14782-2 0  9990
2 25104  86.3734 249.1432 0165490  88.2766 273.7413 15.01576617388243
IRIDIUM 24 [-]          
1 25105U 97082B   24111.88136652  .00001827  00000+0  56113-3 0  9993
2 25105  86.3882 259.1251 0012680  40.9762 319.2388 14.41087092382373
IRIDIUM 51 [-]          
1 25262U 98018A   24111.86742360  .00023975  00000+0  11498-2 0  9998
2 25262  86.3957 259.1039 0150510  34.5424 326.5479 15.09215607382768
